[{"CCSDS_OMM_VERS":"3.0","COMMENT":"GENERATED VIA SPACE-TRACK.ORG API","CREATION_DATE":"2026-03-28T16:56:20","ORIGINATOR":"18 SPCS","OBJECT_NAME":"FENGYUN 1C DEB","OBJECT_ID":"1999-025ND","CENTER_NAME":"EARTH","REF_FRAME":"TEME","TIME_SYSTEM":"UTC","MEAN_ELEMENT_THEORY":"SGP4","EPOCH":"2026-03-28T13:06:34.939008","MEAN_MOTION":"14.56085696","ECCENTRICITY":"0.01723270","INCLINATION":"98.1539","RA_OF_ASC_NODE":"82.3197","ARG_OF_PERICENTER":"260.1547","MEAN_ANOMALY":"229.9650","EPHEMERIS_TYPE":"0","CLASSIFICATION_TYPE":"U","NORAD_CAT_ID":"30028","ELEMENT_SET_NO":"999","REV_AT_EPOCH":"1261","BSTAR":"0.00043088000000","MEAN_MOTION_DOT":"0.00002267","MEAN_MOTION_DDOT":"0.0000000000000","SEMIMAJOR_AXIS":"7083.978","PERIOD":"98.895","APOAPSIS":"827.919","PERIAPSIS":"583.767","OBJECT_TYPE":"DEBRIS","RCS_SIZE":"SMALL","COUNTRY_CODE":"PRC","LAUNCH_DATE":"1999-05-10","SITE":"TSC","DECAY_DATE":null,"FILE":"5104232","GP_ID":"317437033","TLE_LINE0":"0 FENGYUN 1C DEB","TLE_LINE1":"1 30028U 99025ND  26087.54623772  .00002267  00000-0  43088-3 0  9990","TLE_LINE2":"2 30028  98.1539  82.3197 0172327 260.1547 229.9650 14.56085696 12610"},{"CCSDS_OMM_VERS":"3.0","COMMENT":"GENERATED VIA SPACE-TRACK.ORG API","CREATION_DATE":"2012-12-20T10:14:09","ORIGINATOR":"18 SPCS","OBJECT_NAME":"FENGYUN 1C DEB","OBJECT_ID":"1999-025NE","CENTER_NAME":"EARTH","REF_FRAME":"TEME","TIME_SYSTEM":"UTC","MEAN_ELEMENT_THEORY":"SGP4","EPOCH":"2012-12-17T18:06:12.951648","MEAN_MOTION":"16.02157688","ECCENTRICITY":"0.00111740","INCLINATION":"98.5038","RA_OF_ASC_NODE":"59.6222","ARG_OF_PERICENTER":"255.8926","MEAN_ANOMALY":"104.1935","EPHEMERIS_TYPE":"0","CLASSIFICATION_TYPE":"U","NORAD_CAT_ID":"30029","ELEMENT_SET_NO":"999","REV_AT_EPOCH":"31555","BSTAR":"0.02852400000000","MEAN_MOTION_DOT":"0.16500358","MEAN_MOTION_DDOT":"0.0000000000000","SEMIMAJOR_AXIS":"6646.585","PERIOD":"89.878","APOAPSIS":"275.877","PERIAPSIS":"261.023","OBJECT_TYPE":"DEBRIS","RCS_SIZE":"SMALL","COUNTRY_CODE":"PRC","LAUNCH_DATE":"1999-05-10","SITE":"TSC","DECAY_DATE":"2012-12-17","FILE":"1407653","GP_ID":"91707976","TLE_LINE0":"0 FENGYUN 1C DEB","TLE_LINE1":"1 30029U 99025NE  12352.75431657  .16500358  00000-0  28524-1 0  9990","TLE_LINE2":"2 30029 098.5038 059.6222 0011174 255.8926 104.1935 16.02157688315552"},{"CCSDS_OMM_VERS":"3.0","COMMENT":"GENERATED VIA SPACE-TRACK.ORG API","CREATION_DATE":"2024-10-30T06:56:33","ORIGINATOR":"18 SPCS","OBJECT_NAME":"FENGYUN 1C DEB","OBJECT_ID":"1999-025NF","CENTER_NAME":"EARTH","REF_FRAME":"TEME","TIME_SYSTEM":"UTC","MEAN_ELEMENT_THEORY":"SGP4","EPOCH":"2024-10-29T17:32:36.195072","MEAN_MOTION":"16.02154459","ECCENTRICITY":"0.00211200","INCLINATION":"99.6526","RA_OF_ASC_NODE":"50.8945","ARG_OF_PERICENTER":"333.5131","MEAN_ANOMALY":"26.5060","EPHEMERIS_TYPE":"0","CLASSIFICATION_TYPE":"U","NORAD_CAT_ID":"30030","ELEMENT_SET_NO":"999","REV_AT_EPOCH":"94802","BSTAR":"0.01737300000000","MEAN_MOTION_DOT":"0.07248245","MEAN_MOTION_DDOT":"0.1200700000000","SEMIMAJOR_AXIS":"6646.590","PERIOD":"89.879","APOAPSIS":"282.493","PERIAPSIS":"254.418","OBJECT_TYPE":"DEBRIS","RCS_SIZE":"SMALL","COUNTRY_CODE":"PRC","LAUNCH_DATE":"1999-05-10","SITE":"TSC","DECAY_DATE":"2024-11-05","FILE":"4538458","GP_ID":"271922699","TLE_LINE0":"0 FENGYUN 1C DEB","TLE_LINE1":"1 30030U 99025NF  24303.73097448  .07248245  12007+0  17373-1 0  9998","TLE_LINE2":"2 30030  99.6526  50.8945 0021120 333.5131  26.5060 16.02154459948020"},{"CCSDS_OMM_VERS":"3.0","COMMENT":"GENERATED VIA SPACE-TRACK.ORG API","CREATION_DATE":"2023-06-08T18:02:28","ORIGINATOR":"18 SPCS","OBJECT_NAME":"FENGYUN 1C DEB","OBJECT_ID":"1999-025NG","CENTER_NAME":"EARTH","REF_FRAME":"TEME","TIME_SYSTEM":"UTC","MEAN_ELEMENT_THEORY":"SGP4","EPOCH":"2023-06-08T01:37:46.946208","MEAN_MOTION":"16.00968604","ECCENTRICITY":"0.00161630","INCLINATION":"99.1485","RA_OF_ASC_NODE":"203.2882","ARG_OF_PERICENTER":"246.5588","MEAN_ANOMALY":"113.3986","EPHEMERIS_TYPE":"0","CLASSIFICATION_TYPE":"U","NORAD_CAT_ID":"30031","ELEMENT_SET_NO":"999","REV_AT_EPOCH":"87590","BSTAR":"0.01278300000000","MEAN_MOTION_DOT":"0.05288745","MEAN_MOTION_DDOT":"0.0505840000000","SEMIMAJOR_AXIS":"6649.872","PERIOD":"89.946","APOAPSIS":"282.485","PERIAPSIS":"260.989","OBJECT_TYPE":"DEBRIS","RCS_SIZE":"SMALL","COUNTRY_CODE":"PRC","LAUNCH_DATE":"1999-05-10","SITE":"TSC","DECAY_DATE":"2023-06-13","FILE":"3928007","GP_ID":"233457955","TLE_LINE0":"0 FENGYUN 1C DEB","TLE_LINE1":"1 30031U 99025NG  23159.06790447  .05288745  50584-1  12783-1 0  9993","TLE_LINE2":"2 30031  99.1485 203.2882 0016163 246.5588 113.3986 16.00968604875905"},{"CCSDS_OMM_VERS":"3.0","COMMENT":"GENERATED VIA SPACE-TRACK.ORG API","CREATION_DATE":"2024-06-16T17:22:34","ORIGINATOR":"18 SPCS","OBJECT_NAME":"FENGYUN 1C DEB","OBJECT_ID":"1999-025NH","CENTER_NAME":"EARTH","REF_FRAME":"TEME","TIME_SYSTEM":"UTC","MEAN_ELEMENT_THEORY":"SGP4","EPOCH":"2024-06-16T06:09:12.966048","MEAN_MOTION":"16.32601244","ECCENTRICITY":"0.00148490","INCLINATION":"97.2907","RA_OF_ASC_NODE":"265.1592","ARG_OF_PERICENTER":"289.8965","MEAN_ANOMALY":"70.0731","EPHEMERIS_TYPE":"0","CLASSIFICATION_TYPE":"U","NORAD_CAT_ID":"30032","ELEMENT_SET_NO":"999","REV_AT_EPOCH":"93147","BSTAR":"0.00223360000000","MEAN_MOTION_DOT":"0.12874905","MEAN_MOTION_DDOT":"0.0000024398000","SEMIMAJOR_AXIS":"6563.696","PERIOD":"88.203","APOAPSIS":"195.307","PERIAPSIS":"175.814","OBJECT_TYPE":"DEBRIS","RCS_SIZE":"SMALL","COUNTRY_CODE":"PRC","LAUNCH_DATE":"1999-05-10","SITE":"TSC","DECAY_DATE":"2024-06-16","FILE":"4344175","GP_ID":"259642463","TLE_LINE0":"0 FENGYUN 1C DEB","TLE_LINE1":"1 30032U 99025NH  24168.25640007  .12874905  24398-5  22336-2 0  9993","TLE_LINE2":"2 30032  97.2907 265.1592 0014849 289.8965  70.0731 16.32601244931478"},{"CCSDS_OMM_VERS":"3.0","COMMENT":"GENERATED VIA SPACE-TRACK.ORG API","CREATION_DATE":"2014-09-14T22:57:52","ORIGINATOR":"18 SPCS","OBJECT_NAME":"FENGYUN 1C DEB","OBJECT_ID":"1999-025NJ","CENTER_NAME":"EARTH","REF_FRAME":"TEME","TIME_SYSTEM":"UTC","MEAN_ELEMENT_THEORY":"SGP4","EPOCH":"2014-09-14T16:15:50.717376","MEAN_MOTION":"16.11691341","ECCENTRICITY":"0.00305550","INCLINATION":"98.9609","RA_OF_ASC_NODE":"157.5942","ARG_OF_PERICENTER":"177.2463","MEAN_ANOMALY":"182.8990","EPHEMERIS_TYPE":"0","CLASSIFICATION_TYPE":"U","NORAD_CAT_ID":"30033","ELEMENT_SET_NO":"999","REV_AT_EPOCH":"40752","BSTAR":"0.04924900000000","MEAN_MOTION_DOT":"0.55223814","MEAN_MOTION_DDOT":"0.0000028888000","SEMIMAJOR_AXIS":"6620.348","PERIOD":"89.347","APOAPSIS":"262.442","PERIAPSIS":"221.985","OBJECT_TYPE":"DEBRIS","RCS_SIZE":"SMALL","COUNTRY_CODE":"PRC","LAUNCH_DATE":"1999-05-10","SITE":"TSC","DECAY_DATE":"2014-09-14","FILE":"1745867","GP_ID":"96978715","TLE_LINE0":"0 FENGYUN 1C DEB","TLE_LINE1":"1 30033U 99025NJ  14257.67767034  .55223814  28888-5  49249-1 0  9991","TLE_LINE2":"2 30033 098.9609 157.5942 0030555 177.2463 182.8990 16.11691341407521"},{"CCSDS_OMM_VERS":"3.0","COMMENT":"GENERATED VIA SPACE-TRACK.ORG API","CREATION_DATE":"2013-12-24T07:03:23","ORIGINATOR":"18 SPCS","OBJECT_NAME":"FENGYUN 1C DEB","OBJECT_ID":"1999-025NK","CENTER_NAME":"EARTH","REF_FRAME":"TEME","TIME_SYSTEM":"UTC","MEAN_ELEMENT_THEORY":"SGP4","EPOCH":"2013-12-23T21:53:48.990912","MEAN_MOTION":"16.02219368","ECCENTRICITY":"0.00223470","INCLINATION":"97.7321","RA_OF_ASC_NODE":"215.5043","ARG_OF_PERICENTER":"48.2081","MEAN_ANOMALY":"73.6861","EPHEMERIS_TYPE":"0","CLASSIFICATION_TYPE":"U","NORAD_CAT_ID":"30034","ELEMENT_SET_NO":"999","REV_AT_EPOCH":"36862","BSTAR":"0.02436400000000","MEAN_MOTION_DOT":"0.07672021","MEAN_MOTION_DDOT":"0.2883600000000","SEMIMAJOR_AXIS":"6646.415","PERIOD":"89.875","APOAPSIS":"283.132","PERIAPSIS":"253.427","OBJECT_TYPE":"DEBRIS","RCS_SIZE":"SMALL","COUNTRY_CODE":"PRC","LAUNCH_DATE":"1999-05-10","SITE":"TSC","DECAY_DATE":"2013-12-24","FILE":"1603382","GP_ID":"94700350","TLE_LINE0":"0 FENGYUN 1C DEB","TLE_LINE1":"1 30034U 99025NK  13357.91237258  .07672021  28836+0  24364-1 0  9992","TLE_LINE2":"2 30034 097.7321 215.5043 0022347 048.2081 073.6861 16.02219368368626"},{"CCSDS_OMM_VERS":"3.0","COMMENT":"GENERATED VIA SPACE-TRACK.ORG API","CREATION_DATE":"2026-03-28T16:56:20","ORIGINATOR":"18 SPCS","OBJECT_NAME":"FENGYUN 1C DEB","OBJECT_ID":"1999-025NL","CENTER_NAME":"EARTH","REF_FRAME":"TEME","TIME_SYSTEM":"UTC","MEAN_ELEMENT_THEORY":"SGP4","EPOCH":"2026-03-28T08:33:08.201952","MEAN_MOTION":"14.37037444","ECCENTRICITY":"0.01154780","INCLINATION":"99.2740","RA_OF_ASC_NODE":"15.3064","ARG_OF_PERICENTER":"113.9500","MEAN_ANOMALY":"6.4200","EPHEMERIS_TYPE":"0","CLASSIFICATION_TYPE":"U","NORAD_CAT_ID":"30035","ELEMENT_SET_NO":"999","REV_AT_EPOCH":"641","BSTAR":"0.00006459700000","MEAN_MOTION_DOT":"0.00000154","MEAN_MOTION_DDOT":"0.0000000000000","SEMIMAJOR_AXIS":"7146.441","PERIOD":"100.206","APOAPSIS":"850.831","PERIAPSIS":"685.780","OBJECT_TYPE":"DEBRIS","RCS_SIZE":"SMALL","COUNTRY_CODE":"PRC","LAUNCH_DATE":"1999-05-10","SITE":"TSC","DECAY_DATE":null,"FILE":"5104232","GP_ID":"317437533","TLE_LINE0":"0 FENGYUN 1C DEB","TLE_LINE1":"1 30035U 99025NL  26087.35634493  .00000154  00000-0  64597-4 0  9991","TLE_LINE2":"2 30035  99.2740  15.3064 0115478 113.9500   6.4200 14.37037444  6418"}]